{
"type": "FeatureCollection",
"name": "karachi_boundary",
"features": [
{ "type": "Feature", "id": 0, "properties": { "FID": 0, "Boundary_Area(sqm)": 1496664.2178400001, "class": "Defence_Building_Samples_Area" }, "geometry": { "type": "Polygon", "coordinates": [ [ [ 67.054640330754737, 24.806737936845124 ], [ 67.064223143689716, 24.799013327842314 ], [ 67.070981987339621, 24.806124948170989 ], [ 67.069037194022627, 24.80771766510594 ], [ 67.065741704713176, 24.810257087360409 ], [ 67.064414599405694, 24.811472225326057 ], [ 67.066429650306461, 24.813527485948192 ], [ 67.063367911594796, 24.815968723246453 ], [ 67.054640330754737, 24.806737936845124 ] ] ] } }
]
}
