{
"type": "FeatureCollection",
"name": "Islamabad_boundary",
"features": [
{ "type": "Feature", "id": 0, "properties": { "FID": 0, "class": "demo", "Boundary_Area(sqm)": 1120561.67209 }, "geometry": { "type": "Polygon", "coordinates": [ [ [ 73.212267604148764, 33.678629875591476 ], [ 73.220843576809287, 33.682153382270229 ], [ 73.222590117372945, 33.68307405563948 ], [ 73.223644342947139, 33.684863699898571 ], [ 73.221448227996575, 33.688430812436131 ], [ 73.222201893473255, 33.689403529157744 ], [ 73.221848684480321, 33.690177889338351 ], [ 73.220278803983035, 33.690304535999452 ], [ 73.218293127383618, 33.689430131132845 ], [ 73.216080769400037, 33.688967019330697 ], [ 73.209294587786687, 33.686165657205436 ], [ 73.208397679433403, 33.686368242277958 ], [ 73.207750109177113, 33.68602717156385 ], [ 73.207583669834335, 33.685444320853222 ], [ 73.207616237683425, 33.684831189643454 ], [ 73.212267604148764, 33.678629875591476 ] ] ] } }
]
}
