{
"type": "FeatureCollection",
"name": "Lahore_Boundary",
"features": [
{ "type": "Feature", "id": 0, "properties": { "FID": 0, "class": "defenceold_building_samples", "SolarPV_Area(sqm)": 1168038.30418 }, "geometry": { "type": "Polygon", "coordinates": [ [ [ 74.371535406971816, 31.472872962607319 ], [ 74.374548854218745, 31.465686491716035 ], [ 74.388026927920308, 31.469846694080644 ], [ 74.386868216415593, 31.472537633856867 ], [ 74.386999260611745, 31.473001853605023 ], [ 74.386844919375079, 31.473983772810456 ], [ 74.386292958299663, 31.473905844258944 ], [ 74.385902830803616, 31.474886630803407 ], [ 74.386139754889655, 31.475066072375455 ], [ 74.386278005415193, 31.475488723508441 ], [ 74.386186949850966, 31.47562696818094 ], [ 74.38586121424693, 31.475595688407328 ], [ 74.385837038297794, 31.475758028324631 ], [ 74.384454533732395, 31.47631713982107 ], [ 74.384929930271696, 31.47688421801621 ], [ 74.387535252144346, 31.477703424892599 ], [ 74.387456343669399, 31.477908291578871 ], [ 74.371535406971816, 31.472872962607319 ] ] ] } }
]
}
